[{"OBJECT_NAME":"GLOBALSTAR M027","OBJECT_ID":"1999-043B","EPOCH":"2026-03-28T23:26:10.890816","MEAN_MOTION":11.04373167,"ECCENTRICITY":0.0021719,"INCLINATION":52.0196,"RA_OF_ASC_NODE":184.0856,"ARG_OF_PERICENTER":92.4769,"MEAN_ANOMALY":267.8511,"EPHEMERIS_TYPE":0,"CLASSIFICATION_TYPE":"U","NORAD_CAT_ID":25884,"ELEMENT_SET_NO":999,"REV_AT_EPOCH":17270,"BSTAR":0.0009378,"MEAN_MOTION_DOT":-3.9e-7,"MEAN_MOTION_DDOT":0},{"OBJECT_NAME":"GLOBALSTAR M054","OBJECT_ID":"1999-043C","EPOCH":"2026-03-28T17:59:31.099200","MEAN_MOTION":11.39225603,"ECCENTRICITY":0.0004027,"INCLINATION":52.0126,"RA_OF_ASC_NODE":264.1335,"ARG_OF_PERICENTER":314.3672,"MEAN_ANOMALY":58.3969,"EPHEMERIS_TYPE":0,"CLASSIFICATION_TYPE":"U","NORAD_CAT_ID":25885,"ELEMENT_SET_NO":999,"REV_AT_EPOCH":15148,"BSTAR":0.00077624,"MEAN_MOTION_DOT":-4.1e-7,"MEAN_MOTION_DDOT":0},{"OBJECT_NAME":"GLOBALSTAR M053","OBJECT_ID":"1999-043D","EPOCH":"2026-03-29T01:58:21.972864","MEAN_MOTION":11.27671173,"ECCENTRICITY":0.0003691,"INCLINATION":51.9971,"RA_OF_ASC_NODE":226.2379,"ARG_OF_PERICENTER":192.2184,"MEAN_ANOMALY":339.4866,"EPHEMERIS_TYPE":0,"CLASSIFICATION_TYPE":"U","NORAD_CAT_ID":25886,"ELEMENT_SET_NO":999,"REV_AT_EPOCH":15158,"BSTAR":-5.6247e-5,"MEAN_MOTION_DOT":-7.1e-7,"MEAN_MOTION_DDOT":0},{"OBJECT_NAME":"GLOBALSTAR M058","OBJECT_ID":"1999-049A","EPOCH":"2026-03-29T05:03:59.553216","MEAN_MOTION":11.93209131,"ECCENTRICITY":0.0002297,"INCLINATION":51.9939,"RA_OF_ASC_NODE":68.0733,"ARG_OF_PERICENTER":100.1354,"MEAN_ANOMALY":259.974,"EPHEMERIS_TYPE":0,"CLASSIFICATION_TYPE":"U","NORAD_CAT_ID":25907,"ELEMENT_SET_NO":999,"REV_AT_EPOCH":57556,"BSTAR":0.00033637,"MEAN_MOTION_DOT":-5.9e-7,"MEAN_MOTION_DDOT":0},{"OBJECT_NAME":"GLOBALSTAR M050","OBJECT_ID":"1999-049B","EPOCH":"2026-03-29T05:12:30.098592","MEAN_MOTION":12.07465663,"ECCENTRICITY":0.0008791,"INCLINATION":52.0006,"RA_OF_ASC_NODE":54.4387,"ARG_OF_PERICENTER":240.0735,"MEAN_ANOMALY":134.2423,"EPHEMERIS_TYPE":0,"CLASSIFICATION_TYPE":"U","NORAD_CAT_ID":25908,"ELEMENT_SET_NO":999,"REV_AT_EPOCH":18262,"BSTAR":2.0694e-5,"MEAN_MOTION_DOT":-8.6e-7,"MEAN_MOTION_DDOT":0},{"OBJECT_NAME":"GLOBALSTAR M033","OBJECT_ID":"1999-049C","EPOCH":"2026-03-28T21:39:33.686208","MEAN_MOTION":12.2030407,"ECCENTRICITY":0.0015184,"INCLINATION":51.9902,"RA_OF_ASC_NODE":267.4744,"ARG_OF_PERICENTER":128.0553,"MEAN_ANOMALY":232.1667,"EPHEMERIS_TYPE":0,"CLASSIFICATION_TYPE":"U","NORAD_CAT_ID":25909,"ELEMENT_SET_NO":999,"REV_AT_EPOCH":57050,"BSTAR":0.00030906,"MEAN_MOTION_DOT":-6.0e-7,"MEAN_MOTION_DDOT":0},{"OBJECT_NAME":"GLOBALSTAR M055","OBJECT_ID":"1999-049D","EPOCH":"2026-03-28T19:21:50.782464","MEAN_MOTION":12.29442356,"ECCENTRICITY":0.00068496,"INCLINATION":52.0008,"RA_OF_ASC_NODE":264.629,"ARG_OF_PERICENTER":10.836,"MEAN_ANOMALY":349.2638,"EPHEMERIS_TYPE":0,"CLASSIFICATION_TYPE":"U","NORAD_CAT_ID":25910,"ELEMENT_SET_NO":999,"REV_AT_EPOCH":20329,"BSTAR":0.00019543714,"MEAN_MOTION_DOT":-7.1e-7,"MEAN_MOTION_DDOT":0},{"OBJECT_NAME":"GLOBALSTAR M057","OBJECT_ID":"1999-058A","EPOCH":"2026-03-29T03:55:24.468960","MEAN_MOTION":12.24836813,"ECCENTRICITY":0.0001884,"INCLINATION":51.9974,"RA_OF_ASC_NODE":259.4329,"ARG_OF_PERICENTER":225.3805,"MEAN_ANOMALY":134.6891,"EPHEMERIS_TYPE":0,"CLASSIFICATION_TYPE":"U","NORAD_CAT_ID":25943,"ELEMENT_SET_NO":999,"REV_AT_EPOCH":20185,"BSTAR":0.00036264,"MEAN_MOTION_DOT":-5.3e-7,"MEAN_MOTION_DDOT":0},{"OBJECT_NAME":"GLOBALSTAR M059","OBJECT_ID":"1999-058B","EPOCH":"2026-03-29T02:52:17.826528","MEAN_MOTION":11.9999554,"ECCENTRICITY":8.43e-5,"INCLINATION":52.0003,"RA_OF_ASC_NODE":156.3269,"ARG_OF_PERICENTER":163.4432,"MEAN_ANOMALY":207.5953,"EPHEMERIS_TYPE":0,"CLASSIFICATION_TYPE":"U","NORAD_CAT_ID":25944,"ELEMENT_SET_NO":999,"REV_AT_EPOCH":60825,"BSTAR":0.00040828,"MEAN_MOTION_DOT":-5.3e-7,"MEAN_MOTION_DDOT":0},{"OBJECT_NAME":"GLOBALSTAR M056","OBJECT_ID":"1999-058C","EPOCH":"2026-03-29T03:34:16.803840","MEAN_MOTION":12.04788112,"ECCENTRICITY":0.0001016,"INCLINATION":51.9948,"RA_OF_ASC_NODE":150.9058,"ARG_OF_PERICENTER":49.2093,"MEAN_ANOMALY":333.5741,"EPHEMERIS_TYPE":0,"CLASSIFICATION_TYPE":"U","NORAD_CAT_ID":25945,"ELEMENT_SET_NO":999,"REV_AT_EPOCH":19697,"BSTAR":0.0010379,"MEAN_MOTION_DOT":1.0e-8,"MEAN_MOTION_DDOT":0},{"OBJECT_NAME":"GLOBALSTAR M031","OBJECT_ID":"1999-058D","EPOCH":"2026-03-29T05:50:59.439264","MEAN_MOTION":12.16050721,"ECCENTRICITY":0.0001806,"INCLINATION":51.9993,"RA_OF_ASC_NODE":25.8946,"ARG_OF_PERICENTER":45.8314,"MEAN_ANOMALY":120.3003,"EPHEMERIS_TYPE":0,"CLASSIFICATION_TYPE":"U","NORAD_CAT_ID":25946,"ELEMENT_SET_NO":999,"REV_AT_EPOCH":19922,"BSTAR":0.0011714,"MEAN_MOTION_DOT":2.5e-7,"MEAN_MOTION_DDOT":0},{"OBJECT_NAME":"GLOBALSTAR M039","OBJECT_ID":"1999-062A","EPOCH":"2026-03-29T01:16:48.999360","MEAN_MOTION":12.62344063,"ECCENTRICITY":0.0002472,"INCLINATION":51.9825,"RA_OF_ASC_NODE":121.053,"ARG_OF_PERICENTER":255.6595,"MEAN_ANOMALY":104.3997,"EPHEMERIS_TYPE":0,"CLASSIFICATION_TYPE":"U","NORAD_CAT_ID":25961,"ELEMENT_SET_NO":999,"REV_AT_EPOCH":21619,"BSTAR":0.00030934,"MEAN_MOTION_DOT":-4.8e-7,"MEAN_MOTION_DDOT":0},{"OBJECT_NAME":"GLOBALSTAR M034","OBJECT_ID":"1999-062B","EPOCH":"2026-03-29T03:34:35.606208","MEAN_MOTION":11.79456118,"ECCENTRICITY":0.0013601,"INCLINATION":51.9909,"RA_OF_ASC_NODE":350.6445,"ARG_OF_PERICENTER":218.3745,"MEAN_ANOMALY":308.6189,"EPHEMERIS_TYPE":0,"CLASSIFICATION_TYPE":"U","NORAD_CAT_ID":25962,"ELEMENT_SET_NO":999,"REV_AT_EPOCH":17201,"BSTAR":0.00012119,"MEAN_MOTION_DOT":-7.3e-7,"MEAN_MOTION_DDOT":0},{"OBJECT_NAME":"GLOBALSTAR M029","OBJECT_ID":"1999-062C","EPOCH":"2026-03-29T04:04:39.753120","MEAN_MOTION":11.99909294,"ECCENTRICITY":0.0002436,"INCLINATION":51.9824,"RA_OF_ASC_NODE":43.9796,"ARG_OF_PERICENTER":324.0459,"MEAN_ANOMALY":139.4331,"EPHEMERIS_TYPE":0,"CLASSIFICATION_TYPE":"U","NORAD_CAT_ID":25963,"ELEMENT_SET_NO":999,"REV_AT_EPOCH":20333,"BSTAR":0.00010385,"MEAN_MOTION_DOT":-7.8e-7,"MEAN_MOTION_DDOT":0},{"OBJECT_NAME":"GLOBALSTAR M061","OBJECT_ID":"1999-062D","EPOCH":"2026-03-29T04:03:55.191456","MEAN_MOTION":11.76777308,"ECCENTRICITY":0.0006553,"INCLINATION":51.9782,"RA_OF_ASC_NODE":178.4108,"ARG_OF_PERICENTER":141.185,"MEAN_ANOMALY":227.119,"EPHEMERIS_TYPE":0,"CLASSIFICATION_TYPE":"U","NORAD_CAT_ID":25964,"ELEMENT_SET_NO":999,"REV_AT_EPOCH":15473,"BSTAR":-0.00013275,"MEAN_MOTION_DOT":-8.8e-7,"MEAN_MOTION_DDOT":0},{"OBJECT_NAME":"GLOBALSTAR M063","OBJECT_ID":"2000-008A","EPOCH":"2026-03-29T05:19:18.169248","MEAN_MOTION":11.8618255,"ECCENTRICITY":0.0004654,"INCLINATION":51.9945,"RA_OF_ASC_NODE":80.8807,"ARG_OF_PERICENTER":137.8266,"MEAN_ANOMALY":237.3008,"EPHEMERIS_TYPE":0,"CLASSIFICATION_TYPE":"U","NORAD_CAT_ID":26081,"ELEMENT_SET_NO":999,"REV_AT_EPOCH":19140,"BSTAR":0.00018478,"MEAN_MOTION_DOT":-7.0e-7,"MEAN_MOTION_DDOT":0}]
