GLOBALSTAR M027         
1 25884U 99043B   26087.97651494 -.00000039  00000+0  93780-3 0  9992
2 25884  52.0196 184.0856 0021719  92.4769 267.8511 11.04373167172701
GLOBALSTAR M054         
1 25885U 99043C   26087.74966550 -.00000041  00000+0  77624-3 0  9992
2 25885  52.0126 264.1335 0004027 314.3672  58.3969 11.39225603151480
GLOBALSTAR M053         
1 25886U 99043D   26088.08219876 -.00000071  00000+0 -56247-4 0  9996
2 25886  51.9971 226.2379 0003691 192.2184 339.4866 11.27671173151585
GLOBALSTAR M058         
1 25907U 99049A   26088.21110594 -.00000059  00000+0  33637-3 0  9990
2 25907  51.9939  68.0733 0002297 100.1354 259.9740 11.93209131575566
GLOBALSTAR M050         
1 25908U 99049B   26088.21701503 -.00000086  00000+0  20694-4 0  9997
2 25908  52.0006  54.4387 0008791 240.0735 134.2423 12.07465663182624
GLOBALSTAR M033         
1 25909U 99049C   26087.90247322 -.00000060  00000+0  30906-3 0  9995
2 25909  51.9902 267.4744 0015184 128.0553 232.1667 12.20304070570503
GLOBALSTAR M055         
1 25910U 99049D   26087.80683776 -.00000071  00000+0  19544-3 0  9990
2 25910  52.0008 264.6290 0006849  10.8360 349.2638 12.29442356203297
GLOBALSTAR M057         
1 25943U 99058A   26088.16347765 -.00000053  00000+0  36264-3 0  9999
2 25943  51.9974 259.4329 0001884 225.3805 134.6891 12.24836813201856
GLOBALSTAR M059         
1 25944U 99058B   26088.11965077 -.00000053  00000+0  40828-3 0  9998
2 25944  52.0003 156.3269 0000843 163.4432 207.5953 11.99995540608250
GLOBALSTAR M056         
1 25945U 99058C   26088.14880560  .00000001  00000+0  10379-2 0  9994
2 25945  51.9948 150.9058 0001016  49.2093 333.5741 12.04788112196978
GLOBALSTAR M031         
1 25946U 99058D   26088.24374351  .00000025  00000+0  11714-2 0  9992
2 25946  51.9993  25.8946 0001806  45.8314 120.3003 12.16050721199225
GLOBALSTAR M039         
1 25961U 99062A   26088.05334490 -.00000048  00000+0  30934-3 0  9995
2 25961  51.9825 121.0530 0002472 255.6595 104.3997 12.62344063216192
GLOBALSTAR M034         
1 25962U 99062B   26088.14902322 -.00000073  00000+0  12119-3 0  9994
2 25962  51.9909 350.6445 0013601 218.3745 308.6189 11.79456118172016
GLOBALSTAR M029         
1 25963U 99062C   26088.16990455 -.00000078  00000+0  10385-3 0  9999
2 25963  51.9824  43.9796 0002436 324.0459 139.4331 11.99909294203334
GLOBALSTAR M061         
1 25964U 99062D   26088.16938879 -.00000088  00000+0 -13275-3 0  9995
2 25964  51.9782 178.4108 0006553 141.1850 227.1190 11.76777308154737
GLOBALSTAR M063         
1 26081U 00008A   26088.22173807 -.00000070  00000+0  18478-3 0  9997
2 26081  51.9945  80.8807 0004654 137.8266 237.3008 11.86182550191400
